KUIPER-00027            
1 63740U 25088S   25283.79380711  .00005104  00000+0  70722-3 0  9999
2 63740  51.9013  38.2221 0004834  36.5720 323.5572 14.79374498 25427
KUIPER-00028            
1 63741U 25088T   25284.00897882  .00003361  00000+0  47733-3 0  9996
2 63741  51.9011  35.2059 0004490  57.8804 302.2593 14.79245374 25897
KUIPER-00029            
1 63742U 25088U   25283.99251114  .00003280  00000+0  45954-3 0  9999
2 63742  51.9026  33.3009 0008465   1.5174 358.5813 14.79893761 25449
KUIPER-00030            
1 63743U 25088V   25284.06550571  .00001210  00000+0  18784-3 0  9990
2 63743  51.8989  52.1721 0013418 300.3256  59.6379 14.79942254 25473
KUIPER-00031            
1 63744U 25088W   25284.01266615  .00002422  00000+0  34687-3 0  9995
2 63744  51.9016  38.4808 0003696 333.3768  26.7004 14.79913149 25370
KUIPER-00032            
1 63745U 25088X   25283.50566248  .00016431  00000+0  54988-3 0  9995
2 63745  51.8726  26.7890 0004954 310.8901  49.1654 15.31085033 26491
KUIPER-00033            
1 63746U 25088Y   25283.77759940 -.00009608  00000+0 -12326-2 0  9997
2 63746  51.9006  69.5025 0004759  59.7407 300.4026 14.79934308 25407
KUIPER-00034            
1 63747U 25088Z   25283.99933341  .00002876  00000+0  40695-3 0  9990
2 63747  51.9023  30.8123 0001711 333.7999  26.2877 14.79842196 25649
