<?xml version="1.0" encoding="UTF-8"?>
<ndm xmlns:xsi="http://www.w3.org/2001/XMLSchema-instance" xsi:noNamespaceSchemaLocation="https://sanaregistry.org/r/ndmxml_unqualified/ndmxml-2.0.0-master-2.0.xsd">
<omm id="CCSDS_OMM_VERS" version="2.0">
<header><CREATION_DATE/><ORIGINATOR/></header><body><segment><metadata><OBJECT_NAME>KUIPER-00027</OBJECT_NAME><OBJECT_ID>2025-088S</OBJECT_ID><CENTER_NAME>EARTH</CENTER_NAME><REF_FRAME>TEME</REF_FRAME><TIME_SYSTEM>UTC</TIME_SYSTEM><MEAN_ELEMENT_THEORY>SGP4</MEAN_ELEMENT_THEORY></metadata><data><meanElements><EPOCH>2025-10-10T19:03:04.934304</EPOCH><MEAN_MOTION>14.79374498</MEAN_MOTION><ECCENTRICITY>.00048345</ECCENTRICITY><INCLINATION>51.9013</INCLINATION><RA_OF_ASC_NODE>38.2221</RA_OF_ASC_NODE><ARG_OF_PERICENTER>36.5720</ARG_OF_PERICENTER><MEAN_ANOMALY>323.5572</MEAN_ANOMALY></meanElements><tleParameters><EPHEMERIS_TYPE>0</EPHEMERIS_TYPE><CLASSIFICATION_TYPE>U</CLASSIFICATION_TYPE><NORAD_CAT_ID>63740</NORAD_CAT_ID><ELEMENT_SET_NO>999</ELEMENT_SET_NO><REV_AT_EPOCH>2542</REV_AT_EPOCH><BSTAR>.70721808E-3</BSTAR><MEAN_MOTION_DOT>.5104E-4</MEAN_MOTION_DOT><MEAN_MOTION_DDOT>0</MEAN_MOTION_DDOT></tleParameters></data></segment></body></omm>
<omm id="CCSDS_OMM_VERS" version="2.0">
<header><CREATION_DATE/><ORIGINATOR/></header><body><segment><metadata><OBJECT_NAME>KUIPER-00028</OBJECT_NAME><OBJECT_ID>2025-088T</OBJECT_ID><CENTER_NAME>EARTH</CENTER_NAME><REF_FRAME>TEME</REF_FRAME><TIME_SYSTEM>UTC</TIME_SYSTEM><MEAN_ELEMENT_THEORY>SGP4</MEAN_ELEMENT_THEORY></metadata><data><meanElements><EPOCH>2025-10-11T00:12:55.770048</EPOCH><MEAN_MOTION>14.79245374</MEAN_MOTION><ECCENTRICITY>.00044905</ECCENTRICITY><INCLINATION>51.9011</INCLINATION><RA_OF_ASC_NODE>35.2059</RA_OF_ASC_NODE><ARG_OF_PERICENTER>57.8804</ARG_OF_PERICENTER><MEAN_ANOMALY>302.2593</MEAN_ANOMALY></meanElements><tleParameters><EPHEMERIS_TYPE>0</EPHEMERIS_TYPE><CLASSIFICATION_TYPE>U</CLASSIFICATION_TYPE><NORAD_CAT_ID>63741</NORAD_CAT_ID><ELEMENT_SET_NO>999</ELEMENT_SET_NO><REV_AT_EPOCH>2589</REV_AT_EPOCH><BSTAR>.47732502E-3</BSTAR><MEAN_MOTION_DOT>.3361E-4</MEAN_MOTION_DOT><MEAN_MOTION_DDOT>0</MEAN_MOTION_DDOT></tleParameters></data></segment></body></omm>
<omm id="CCSDS_OMM_VERS" version="2.0">
<header><CREATION_DATE/><ORIGINATOR/></header><body><segment><metadata><OBJECT_NAME>KUIPER-00029</OBJECT_NAME><OBJECT_ID>2025-088U</OBJECT_ID><CENTER_NAME>EARTH</CENTER_NAME><REF_FRAME>TEME</REF_FRAME><TIME_SYSTEM>UTC</TIME_SYSTEM><MEAN_ELEMENT_THEORY>SGP4</MEAN_ELEMENT_THEORY></metadata><data><meanElements><EPOCH>2025-10-10T23:49:12.962496</EPOCH><MEAN_MOTION>14.79893761</MEAN_MOTION><ECCENTRICITY>.00084659</ECCENTRICITY><INCLINATION>51.9026</INCLINATION><RA_OF_ASC_NODE>33.3009</RA_OF_ASC_NODE><ARG_OF_PERICENTER>1.5174</ARG_OF_PERICENTER><MEAN_ANOMALY>358.5813</MEAN_ANOMALY></meanElements><tleParameters><EPHEMERIS_TYPE>0</EPHEMERIS_TYPE><CLASSIFICATION_TYPE>U</CLASSIFICATION_TYPE><NORAD_CAT_ID>63742</NORAD_CAT_ID><ELEMENT_SET_NO>999</ELEMENT_SET_NO><REV_AT_EPOCH>2544</REV_AT_EPOCH><BSTAR>.45954201E-3</BSTAR><MEAN_MOTION_DOT>.328E-4</MEAN_MOTION_DOT><MEAN_MOTION_DDOT>0</MEAN_MOTION_DDOT></tleParameters></data></segment></body></omm>
<omm id="CCSDS_OMM_VERS" version="2.0">
<header><CREATION_DATE/><ORIGINATOR/></header><body><segment><metadata><OBJECT_NAME>KUIPER-00030</OBJECT_NAME><OBJECT_ID>2025-088V</OBJECT_ID><CENTER_NAME>EARTH</CENTER_NAME><REF_FRAME>TEME</REF_FRAME><TIME_SYSTEM>UTC</TIME_SYSTEM><MEAN_ELEMENT_THEORY>SGP4</MEAN_ELEMENT_THEORY></metadata><data><meanElements><EPOCH>2025-10-11T01:34:19.693344</EPOCH><MEAN_MOTION>14.79942254</MEAN_MOTION><ECCENTRICITY>.00134189</ECCENTRICITY><INCLINATION>51.8989</INCLINATION><RA_OF_ASC_NODE>52.1721</RA_OF_ASC_NODE><ARG_OF_PERICENTER>300.3256</ARG_OF_PERICENTER><MEAN_ANOMALY>59.6379</MEAN_ANOMALY></meanElements><tleParameters><EPHEMERIS_TYPE>0</EPHEMERIS_TYPE><CLASSIFICATION_TYPE>U</CLASSIFICATION_TYPE><NORAD_CAT_ID>63743</NORAD_CAT_ID><ELEMENT_SET_NO>999</ELEMENT_SET_NO><REV_AT_EPOCH>2547</REV_AT_EPOCH><BSTAR>.18783791E-3</BSTAR><MEAN_MOTION_DOT>.121E-4</MEAN_MOTION_DOT><MEAN_MOTION_DDOT>0</MEAN_MOTION_DDOT></tleParameters></data></segment></body></omm>
<omm id="CCSDS_OMM_VERS" version="2.0">
<header><CREATION_DATE/><ORIGINATOR/></header><body><segment><metadata><OBJECT_NAME>KUIPER-00031</OBJECT_NAME><OBJECT_ID>2025-088W</OBJECT_ID><CENTER_NAME>EARTH</CENTER_NAME><REF_FRAME>TEME</REF_FRAME><TIME_SYSTEM>UTC</TIME_SYSTEM><MEAN_ELEMENT_THEORY>SGP4</MEAN_ELEMENT_THEORY></metadata><data><meanElements><EPOCH>2025-10-11T00:18:14.355360</EPOCH><MEAN_MOTION>14.79913149</MEAN_MOTION><ECCENTRICITY>.00036962</ECCENTRICITY><INCLINATION>51.9016</INCLINATION><RA_OF_ASC_NODE>38.4808</RA_OF_ASC_NODE><ARG_OF_PERICENTER>333.3768</ARG_OF_PERICENTER><MEAN_ANOMALY>26.7004</MEAN_ANOMALY></meanElements><tleParameters><EPHEMERIS_TYPE>0</EPHEMERIS_TYPE><CLASSIFICATION_TYPE>U</CLASSIFICATION_TYPE><NORAD_CAT_ID>63744</NORAD_CAT_ID><ELEMENT_SET_NO>999</ELEMENT_SET_NO><REV_AT_EPOCH>2537</REV_AT_EPOCH><BSTAR>.3468682E-3</BSTAR><MEAN_MOTION_DOT>.2422E-4</MEAN_MOTION_DOT><MEAN_MOTION_DDOT>0</MEAN_MOTION_DDOT></tleParameters></data></segment></body></omm>
<omm id="CCSDS_OMM_VERS" version="2.0">
<header><CREATION_DATE/><ORIGINATOR/></header><body><segment><metadata><OBJECT_NAME>KUIPER-00032</OBJECT_NAME><OBJECT_ID>2025-088X</OBJECT_ID><CENTER_NAME>EARTH</CENTER_NAME><REF_FRAME>TEME</REF_FRAME><TIME_SYSTEM>UTC</TIME_SYSTEM><MEAN_ELEMENT_THEORY>SGP4</MEAN_ELEMENT_THEORY></metadata><data><meanElements><EPOCH>2025-10-10T12:08:09.238272</EPOCH><MEAN_MOTION>15.31085033</MEAN_MOTION><ECCENTRICITY>.00049549</ECCENTRICITY><INCLINATION>51.8726</INCLINATION><RA_OF_ASC_NODE>26.7890</RA_OF_ASC_NODE><ARG_OF_PERICENTER>310.8901</ARG_OF_PERICENTER><MEAN_ANOMALY>49.1654</MEAN_ANOMALY></meanElements><tleParameters><EPHEMERIS_TYPE>0</EPHEMERIS_TYPE><CLASSIFICATION_TYPE>U</CLASSIFICATION_TYPE><NORAD_CAT_ID>63745</NORAD_CAT_ID><ELEMENT_SET_NO>999</ELEMENT_SET_NO><REV_AT_EPOCH>2649</REV_AT_EPOCH><BSTAR>.54988431E-3</BSTAR><MEAN_MOTION_DOT>.16431E-3</MEAN_MOTION_DOT><MEAN_MOTION_DDOT>0</MEAN_MOTION_DDOT></tleParameters></data></segment></body></omm>
<omm id="CCSDS_OMM_VERS" version="2.0">
<header><CREATION_DATE/><ORIGINATOR/></header><body><segment><metadata><OBJECT_NAME>KUIPER-00033</OBJECT_NAME><OBJECT_ID>2025-088Y</OBJECT_ID><CENTER_NAME>EARTH</CENTER_NAME><REF_FRAME>TEME</REF_FRAME><TIME_SYSTEM>UTC</TIME_SYSTEM><MEAN_ELEMENT_THEORY>SGP4</MEAN_ELEMENT_THEORY></metadata><data><meanElements><EPOCH>2025-10-10T18:39:44.588160</EPOCH><MEAN_MOTION>14.79934308</MEAN_MOTION><ECCENTRICITY>.00047591</ECCENTRICITY><INCLINATION>51.9006</INCLINATION><RA_OF_ASC_NODE>69.5025</RA_OF_ASC_NODE><ARG_OF_PERICENTER>59.7407</ARG_OF_PERICENTER><MEAN_ANOMALY>300.4026</MEAN_ANOMALY></meanElements><tleParameters><EPHEMERIS_TYPE>0</EPHEMERIS_TYPE><CLASSIFICATION_TYPE>U</CLASSIFICATION_TYPE><NORAD_CAT_ID>63746</NORAD_CAT_ID><ELEMENT_SET_NO>999</ELEMENT_SET_NO><REV_AT_EPOCH>2540</REV_AT_EPOCH><BSTAR>-.12326105E-2</BSTAR><MEAN_MOTION_DOT>-.9608E-4</MEAN_MOTION_DOT><MEAN_MOTION_DDOT>0</MEAN_MOTION_DDOT></tleParameters></data></segment></body></omm>
<omm id="CCSDS_OMM_VERS" version="2.0">
<header><CREATION_DATE/><ORIGINATOR/></header><body><segment><metadata><OBJECT_NAME>KUIPER-00034</OBJECT_NAME><OBJECT_ID>2025-088Z</OBJECT_ID><CENTER_NAME>EARTH</CENTER_NAME><REF_FRAME>TEME</REF_FRAME><TIME_SYSTEM>UTC</TIME_SYSTEM><MEAN_ELEMENT_THEORY>SGP4</MEAN_ELEMENT_THEORY></metadata><data><meanElements><EPOCH>2025-10-10T23:59:02.406624</EPOCH><MEAN_MOTION>14.79842196</MEAN_MOTION><ECCENTRICITY>.00017119</ECCENTRICITY><INCLINATION>51.9023</INCLINATION><RA_OF_ASC_NODE>30.8123</RA_OF_ASC_NODE><ARG_OF_PERICENTER>333.7999</ARG_OF_PERICENTER><MEAN_ANOMALY>26.2877</MEAN_ANOMALY></meanElements><tleParameters><EPHEMERIS_TYPE>0</EPHEMERIS_TYPE><CLASSIFICATION_TYPE>U</CLASSIFICATION_TYPE><NORAD_CAT_ID>63747</NORAD_CAT_ID><ELEMENT_SET_NO>999</ELEMENT_SET_NO><REV_AT_EPOCH>2564</REV_AT_EPOCH><BSTAR>.40694597E-3</BSTAR><MEAN_MOTION_DOT>.2876E-4</MEAN_MOTION_DOT><MEAN_MOTION_DDOT>0</MEAN_MOTION_DDOT></tleParameters></data></segment></body></omm>

</ndm>
